BEIDOU 3 (C01)          
1 36287U 10001A   21116.55674521 -.00000282  00000-0  00000-0 0  9997
2 36287   1.7961  44.3330 0004056  71.4999  79.7601  1.00272824 41330
BEIDOU 5 (C06)          
1 36828U 10036A   21116.48799176 -.00000074  00000-0  00000-0 0  9991
2 36828  54.1715 180.0721 0111240 234.8765  94.6175  1.00277339 39382
BEIDOU 6 (C04)          
1 37210U 10057A   21116.55246524 -.00000114  00000-0  00000-0 0  9997
2 37210   0.7635  41.0006 0001810 168.9168   3.6807  1.00273008 38451
BEIDOU 7 (C07)          
1 37256U 10068A   21116.40061990 -.00000218  00000-0  00000-0 0  9990
2 37256  50.9494 294.6174 0083164 215.1035 328.8363  1.00271720 37966
BEIDOU 8 (C08)          
1 37384U 11013A   21116.56752199 -.00000209  00000-0  00000-0 0  9998
2 37384  59.7092  58.4246 0052786 207.6209 272.4531  1.00268328 36847
BEIDOU 9 (C09)          
1 37763U 11038A   21116.09856438 -.00000054  00000-0  00000-0 0  9993
2 37763  54.4596 182.5147 0081448 225.5710 297.5655  1.00276047 35819
BEIDOU 10 (C10)         
1 37948U 11073A   21116.46752981 -.00000157  00000-0  00000-0 0  9990
2 37948  51.0521 294.2254 0070275 213.6072 330.4382  1.00265096 34578
BEIDOU 11 (C05)         
1 38091U 12008A   21116.09668917  .00000055  00000-0  00000-0 0  9999
2 38091   1.4405  66.0722 0008936 315.5510 286.2582  1.00275641 33641
BEIDOU 12 (C11)         
1 38250U 12018A   21116.20182564 -.00000079  00000-0  00000-0 0  9996
2 38250  56.7566   7.3360 0021200 251.9712 289.6944  1.86234424 61313
BEIDOU 13 (C12)         
1 38251U 12018B   21116.29669646 -.00000079  00000-0  00000-0 0  9997
2 38251  56.6788   6.6848 0012148 258.3979  31.2959  1.86234325 61316
BEIDOU 15 (C14)         
1 38775U 12050B   21116.31789556  .00000082  00000-0  00000-0 0  9993
2 38775  55.1830 125.7394 0015967 315.9368 185.3582  1.86232366 58695
BEIDOU 16 (C02)         
1 38953U 12059A   21116.55117897 -.00000176  00000-0  00000-0 0  9994
2 38953   1.8442  84.7312 0009318 283.9340 128.5097  1.00269772 31228
BEIDOU 17 (C31)         
1 40549U 15019A   21116.28995887 -.00000169  00000-0  00000-0 0  9992
2 40549  52.5752 317.5891 0036967 186.5582 271.4686  1.00277625 22255
BEIDOU 18 (C57)         
1 40748U 15037A   21116.42402236 -.00000080  00000-0  00000-0 0  9992
2 40748  55.9429   5.8003 0005587  10.8158 274.1857  1.86233474 39142
BEIDOU 19 (C58)         
1 40749U 15037B   21116.51431950 -.00000081  00000-0  00000-0 0  9999
2 40749  55.9451   5.7844 0006077 335.0646 146.8150  1.86232321 39140
BEIDOU 20 (C18)         
1 40938U 15053A   21116.23205730 -.00000142  00000-0  00000-0 0  9999
2 40938  52.1456 280.6535 0045028 189.8294 280.8382  1.00293931 20526
BEIDOU IGSO-6 (C13)     
1 41434U 16021A   21116.23388022 -.00000173  00000-0  00000-0 0  9997
2 41434  57.4914  57.1883 0039154 216.8676 121.3968  1.00280138 18640
BEIDOU-2 G7 (C03)       
1 41586U 16037A   21116.54589887 -.00000356  00000-0  00000-0 0  9991
2 41586   1.5915  65.6603 0010027  13.2759  82.9034  1.00270559 17968
BEIDOU-3 M1 (C19)       
1 43001U 17069A   21116.38225045  .00000081  00000-0  00000-0 0  9990
2 43001  55.3386 125.6818 0012239 288.7077  51.9070  1.86231856 23622
BEIDOU-3 M2 (C20)       
1 43002U 17069B   21116.52134541  .00000080  00000-0  00000-0 0  9996
2 43002  55.3378 125.7134 0010795 306.5430 170.8780  1.86231577 23622
BEIDOU-3 M3 (C27)       
1 43107U 18003A   21116.36161794 -.00000082  00000-0  00000-0 0  9996
2 43107  55.3848   6.9051 0005619  38.7471 137.4485  1.86232567 22389
BEIDOU-3 M4 (C28)       
1 43108U 18003B   21116.31229990 -.00000082  00000-0  00000-0 0  9995
2 43108  55.3781   6.8976 0002506 266.2946 282.0151  1.86232592 22383
BEIDOU-3 M5 (C21)       
1 43207U 18018A   21116.47873125  .00000080  00000-0  00000+0 0  9999
2 43207  55.3043 125.8067 0008050 321.8715  38.1025  1.86230925 21779
BEIDOU-3 M6 (C22)       
1 43208U 18018B   21116.00846362  .00000086  00000-0  00000-0 0  9999
2 43208  55.2976 125.8274 0010226 297.2320  62.7080  1.86231772 21764
BEIDOU-3 M7 (C29)       
1 43245U 18029A   21116.38629095 -.00000081  00000-0  00000-0 0  9991
2 43245  55.3178   4.6988 0001429   8.5888  94.3160  1.86232694 20924
BEIDOU-3 M8 (C30)       
1 43246U 18029B   21116.30422969 -.00000081  00000-0  10000-3 0  9999
2 43246  55.3140   4.7328 0005181 354.9751  99.0526  1.86232990 20915
BEIDOU IGSO-7 (C16)     
1 43539U 18057A   21116.41249694 -.00000094  00000-0  00000-0 0  9999
2 43539  55.0529 179.4213 0037989 221.5148  75.1801  1.00285227 10323
BEIDOU-3 M9 (C23)       
1 43581U 18062A   21116.38902840 -.00000009  00000-0  00000-0 0  9993
2 43581  54.4216 246.3825 0002221 277.1548  83.6853  1.86231868 18663
BEIDOU-3 M10 (C24)      
1 43582U 18062B   21116.25547977 -.00000010  00000-0  00000-0 0  9998
2 43582  54.4229 246.3759 0005067  13.4863 349.1275  1.86232053 18661
BEIDOU-3 M11 (C25)      
1 43602U 18067A   21116.24809022 -.00000009  00000-0  00000-0 0  9995
2 43602  54.4993 244.9552 0006675   3.9871  35.9672  1.86231784 18151
BEIDOU-3 M12 (C26)      
1 43603U 18067B   21116.14809060 -.00000010  00000-0  00000-0 0  9999
2 43603  54.4967 244.9261 0003979 357.1866 246.1926  1.86231622 18162
BEIDOU-3 M13 (C32)      
1 43622U 18072A   21116.36947616  .00000081  00000-0  00000-0 0  9997
2 43622  55.2619 125.3806 0008715 285.3438 136.6436  1.86231704 17689
BEIDOU-3 M14 (C33)      
1 43623U 18072B   21116.37952292  .00000081  00000-0  00000-0 0  9995
2 43623  55.2622 125.3717 0006924 303.9340 215.0272  1.86231722 17684
BEIDOU-3 M15 (C34)      
1 43647U 18078A   21116.45672617 -.00000081  00000-0  10000-3 0  9991
2 43647  55.2110   4.8918 0007561 358.9205 107.0328  1.86232912 17194
BEIDOU-3 M16 (C35)      
1 43648U 18078B   21116.58886205 -.00000082  00000-0  10000-3 0  9997
2 43648  55.2078   4.8943 0005666   6.8469  96.2456  1.86232349 17219
BEIDOU-3 G1 (C59)       
1 43683U 18085A   21116.52896632 -.00000280  00000-0  00000-0 0  9999
2 43683   1.1387 233.2433 0002387   7.0702 304.9129  1.00268933  9225
BEIDOU-3 M17 (C36)      
1 43706U 18093A   21116.47197953 -.00000009  00000-0  00000-0 0  9997
2 43706  54.5050 246.2339 0008178 270.7516  10.6499  1.86231850 16552
BEIDOU-3 M18 (C37)      
1 43707U 18093B   21116.45779147 -.00000009  00000-0  00000-0 0  9997
2 43707  54.5040 246.2250 0006967 300.3563  62.3388  1.86232118 16560
BEIDOU-3 IGSO-1 (C38)   
1 44204U 19023A   21116.57078472 -.00000221  00000-0  00000-0 0  9996
2 44204  55.9500  57.4785 0015432 204.3985 270.0830  1.00254835  7535
BEIDOU-2 G8             
1 44231U 19027A   21116.62636916 -.00000249  00000-0  00000+0 0  9998
2 44231   0.3315 329.8645 0004881 229.2252  25.7325  1.00275335  7243
BEIDOU-3 IGSO-2 (C39)   
1 44337U 19035A   21116.45134182 -.00000070  00000-0  00000+0 0  9995
2 44337  55.0812 175.4576 0020476 191.3637 114.8475  1.00295731  6866
BEIDOU-3 M23 (C45)      
1 44542U 19061A   21116.25833817 -.00000009  00000-0  10000-3 0  9998
2 44542  54.7294 246.3017 0007378 334.8528 207.3396  1.86231395 10811
BEIDOU-3 M24 (C46)      
1 44543U 19061B   21116.53573499 -.00000008  00000-0  10000-3 0  9996
2 44543  54.7274 246.2624 0004514 327.1266 311.8288  1.86231720 10820
BEIDOU-3 IGSO-3         
1 44709U 19073A   21116.43903512 -.00000161  00000-0  00000-0 0  9991
2 44709  57.9282 300.6871 0018317 197.2488 340.3868  1.00290273  5622
BEIDOU-3 M21            
1 44793U 19078A   21116.65433094 -.00000082  00000-0  10000-3 0  9992
2 44793  55.0597   4.9570 0007486   4.1235 188.8254  1.86232497  9686
BEIDOU-3 M22            
1 44794U 19078B   21116.22629875 -.00000081  00000-0  00000-0 0  9995
2 44794  55.0356   4.9711 0005526   0.4642 176.3886  1.86232871  9679
BEIDOU-3 M19            
1 44864U 19090A   21116.44506242  .00000080  00000-0  00000-0 0  9991
2 44864  55.1962 125.6118 0018076 267.9788 250.1490  1.86231912  9260
BEIDOU-3 M20            
1 44865U 19090B   21116.15141612  .00000084  00000-0  00000-0 0  9990
2 44865  55.1992 125.6526 0016828 281.3139 129.8627  1.86231896  9243
BEIDOU-3 G2             
1 45344U 20017A   21116.53658832 -.00000148  00000-0  00000-0 0  9995
2 45344   2.5026 335.1696 0002908  90.6208  62.1737  1.00271564  4448
BEIDOU-3 G3             
1 45807U 20040A   21116.54589887 -.00000360  00000-0  00000-0 0  9995
2 45807   2.4054 298.4953 0006715  17.2467 206.0984  1.00272361  3258
